      2.10          N: GNSS NAV DATA                        RINEX VERSION / TYPE
fic2rin                                 09/10/2021 00:17:29 PGM / RUN BY / DATE
                                                            END OF HEADER
13 21  9  9 12  0  0.0 1.830449327826e-04 5.343281372916e-12 0.000000000000e+00
    6.900000000000e+01-6.550000000000e+01 4.051954494455e-09-2.989657971255e+00
   -3.308057785034e-06 5.399364512414e-03 1.168809831142e-05 5.153689163208e+03
    3.888000000000e+05-1.676380634308e-08-3.099868709997e+00 9.313225746155e-09
    9.687906885580e-01 1.578125000000e+02 9.610884190189e-01-7.739608100029e-09
   -3.639437311458e-10 1.000000000000e+00 2.174000000000e+03 0.000000000000e+00
    2.400000000000e+00 0.000000000000e+00-1.117587089539e-08 6.900000000000e+01
    3.816000000000e+05 4.000000000000e+00
31 21  9  9 12  0  0.0-1.388327218592e-04-2.046363078989e-12 0.000000000000e+00
    8.300000000000e+01 9.093750000000e+01 4.412683805993e-09 5.278652630442e-01
    4.883855581284e-06 1.015908608679e-02 1.033954322338e-05 5.153611619949e+03
    3.888000000000e+05 1.303851604462e-07-2.160776516558e+00 2.495944499969e-07
    9.556689877922e-01 1.755937500000e+02 2.900701397285e-01-8.170340327470e-09
    4.382325398586e-10 1.000000000000e+00 2.174000000000e+03 0.000000000000e+00
    2.400000000000e+00 0.000000000000e+00-1.303851604462e-08 8.300000000000e+01
    3.816000000000e+05 4.000000000000e+00
32 21  9  9 12  0  0.0 1.031439751387e-06-3.296918293927e-12 0.000000000000e+00
    6.100000000000e+01-6.293750000000e+01 4.429827377234e-09-1.723851033841e+00
   -3.272667527199e-06 5.081852898002e-03 1.090392470360e-05 5.153717582703e+03
    3.888000000000e+05 8.754432201385e-08 3.043573309434e+00-7.450580596924e-08
    9.580129760801e-01 1.712812500000e+02-2.371336216037e+00-7.932116118761e-09
   -5.032352474823e-10 1.000000000000e+00 2.174000000000e+03 0.000000000000e+00
    2.400000000000e+00 0.000000000000e+00 4.656612873077e-10 6.100000000000e+01
    3.816000000000e+05 4.000000000000e+00
21 21  9  9 12  0  0.0 1.418031752110e-04 2.046363078989e-12 0.000000000000e+00
    6.400000000000e+01 7.331250000000e+01 4.405897809043e-09-2.312174163129e+00
    4.081055521965e-06 2.407910244074e-02 1.232139766216e-05 5.153648376465e+03
    3.888000000000e+05 8.754432201385e-08 8.802638160527e-01 4.507601261139e-07
    9.581345299433e-01 1.339375000000e+02-1.086915416196e+00-7.658176136632e-09
    4.800199947595e-10 1.000000000000e+00 2.174000000000e+03 0.000000000000e+00
    2.400000000000e+00 0.000000000000e+00-1.024454832077e-08 6.400000000000e+01
    3.816000000000e+05 4.000000000000e+00
25 21  9  9 12  0  0.0 2.053822390735e-04 6.366462912410e-12 0.000000000000e+00
    9.100000000000e+01 9.125000000000e+00 5.069496879179e-09 9.602873982246e-02
    4.004687070847e-07 9.868557681330e-03 2.883374691010e-06 5.153569934845e+03
    3.888000000000e+05-2.048909664154e-08-1.141088516151e+00 1.545995473862e-07
    9.593177614925e-01 3.278750000000e+02 9.674807302672e-01-8.740364071247e-09
    5.107355599004e-11 1.000000000000e+00 2.174000000000e+03 0.000000000000e+00
    2.400000000000e+00 0.000000000000e+00 5.587935447693e-09 9.100000000000e+01
    3.816000000000e+05 4.000000000000e+00
26 21  9  9 12  0  0.0 1.322524622083e-04 4.206412995700e-12 0.000000000000e+00
    1.110000000000e+02 9.750000000000e+00 5.495943213809e-09-5.783918056203e-01
    6.053596735001e-07 6.085151224397e-03 2.382323145866e-06 5.153613521576e+03
    3.888000000000e+05 1.192092895508e-07-1.185134695903e+00-2.421438694000e-08
    9.401976591892e-01 3.192812500000e+02 2.926202955984e-01-8.925371777560e-09
    1.142904749427e-10 1.000000000000e+00 2.174000000000e+03 0.000000000000e+00
    2.400000000000e+00 0.000000000000e+00 6.984919309616e-09 1.110000000000e+02
    3.816000000000e+05 4.000000000000e+00
20 21  9  9 12  0  0.0 5.192290991545e-04-2.273736754432e-13 0.000000000000e+00
    6.400000000000e+01 2.606250000000e+01 5.447369761959e-09 2.785932932878e+00
    1.342967152596e-06 5.525000975467e-03 3.313645720482e-06 5.153645738602e+03
    3.888000000000e+05-1.490116119385e-07 1.854438410335e+00 6.891787052155e-08
    9.392635230901e-01 3.062812500000e+02 2.979559953923e+00-8.685718937915e-09
    1.053615315878e-10 1.000000000000e+00 2.174000000000e+03 0.000000000000e+00
    2.400000000000e+00 0.000000000000e+00-8.381903171539e-09 6.400000000000e+01
    3.816000000000e+05 4.000000000000e+00
23 21  9  9 12  0  0.0 5.976203829050e-05-4.888534022029e-12 0.000000000000e+00
    1.090000000000e+02-2.312500000000e+00 5.029495212949e-09 1.192029099654e+00
   -1.769512891769e-07 1.652867416851e-03 2.788379788399e-06 5.153663936615e+03
    3.888000000000e+05 3.166496753693e-08 1.976944015859e+00-4.097819328308e-08
    9.651513916409e-01 3.257500000000e+02 2.670562274335e+00-8.548213210249e-09
   -1.264338379054e-10 1.000000000000e+00 2.174000000000e+03 0.000000000000e+00
    2.400000000000e+00 0.000000000000e+00-8.381903171539e-09 6.210000000000e+02
    3.816000000000e+05 4.000000000000e+00
18 21  9  9 12  0  0.0 3.242897801101e-04-4.206412995700e-12 0.000000000000e+00
    9.100000000000e+01 7.150000000000e+01 4.439827793792e-09 1.927522282183e+00
    3.807246685028e-06 1.916217035614e-03 1.030229032040e-05 5.153650962830e+03
    3.888000000000e+05 4.842877388000e-08 9.770064584349e-01 5.774199962616e-08
    9.690830073856e-01 1.857812500000e+02 2.940289350282e+00-8.048549540109e-09
    4.150172871358e-10 1.000000000000e+00 2.174000000000e+03 0.000000000000e+00
    2.400000000000e+00 0.000000000000e+00-8.381903171539e-09 3.470000000000e+02
    3.816000000000e+05 4.000000000000e+00
14 21  9  9 12  0  0.0 5.158130079508e-06-8.185452315956e-12 0.000000000000e+00
    2.370000000000e+02 6.906250000000e+00 5.132356640398e-09 2.137513888148e-01
    3.986060619354e-07 1.071644248441e-03 2.890825271606e-06 5.153639064789e+03
    3.888000000000e+05-1.676380634308e-08-1.095066895212e+00 3.911554813385e-08
    9.554092481501e-01 3.205625000000e+02 3.108399939140e+00-8.636431170596e-09
    8.750364487804e-11 1.000000000000e+00 2.174000000000e+03 0.000000000000e+00
    2.400000000000e+00 0.000000000000e+00-7.916241884232e-09 1.005000000000e+03
    3.816000000000e+05 4.000000000000e+00
28 21  9  9 12  0  0.0 5.044080317020e-04-7.048583938740e-12 0.000000000000e+00
    5.900000000000e+01 3.468750000000e+00 4.673766109690e-09-1.930496981268e+00
    6.463378667831e-07 1.748784584925e-02 2.903863787651e-06 5.153714693069e+03
    3.888000000000e+05 8.754432201385e-08-1.044030581276e+00 4.246830940247e-07
    9.711172432512e-01 3.266562500000e+02-1.337294723213e+00-8.257486814613e-09
    5.357366012941e-11 1.000000000000e+00 2.174000000000e+03 0.000000000000e+00
    2.400000000000e+00 6.300000000000e+01-1.117587089539e-08 5.900000000000e+01
    3.816000000000e+05 4.000000000000e+00
17 21  9  9 12  0  0.0 5.021132528782e-04 5.684341886081e-12 0.000000000000e+00
    1.000000000000e+02-8.175000000000e+01 3.980165789881e-09-2.403411593157e+00
   -4.077330231667e-06 1.350588048808e-02 1.048482954502e-05 5.153662012100e+03
    3.888000000000e+05 1.788139343262e-07-2.980132363046e-02 5.960464477539e-08
    9.816181804059e-01 1.832812500000e+02-1.558313375561e+00-7.592459113540e-09
   -2.885834492304e-10 1.000000000000e+00 2.174000000000e+03 0.000000000000e+00
    4.850000000000e+00 0.000000000000e+00-1.117587089539e-08 1.000000000000e+02
    3.816000000000e+05 4.000000000000e+00
11 21  9  9 12  0  0.0 1.657614484429e-05 2.842170943040e-12 0.000000000000e+00
    8.000000000000e+00 6.218750000000e+01 4.513402287036e-09-1.673031670656e+00
    3.268942236900e-06 4.909188719466e-04 1.025386154652e-05 5.153699073792e+03
    3.888000000000e+05-2.235174179077e-08 1.014314816409e+00-3.166496753693e-08
    9.603184852338e-01 1.815937500000e+02 2.052612369487e+00-8.042835016362e-09
    4.060883437809e-10 1.000000000000e+00 2.174000000000e+03 0.000000000000e+00
    4.800000000000e+01 6.300000000000e+01-8.381903171539e-09 8.000000000000e+00
    3.816000000000e+05 4.000000000000e+00
15 21  9  9 11 59 44.0-1.223576255143e-04 2.728484105319e-12 0.000000000000e+00
    1.000000000000e+00-8.946875000000e+01 5.099140971117e-09 2.939756698884e+00
   -4.636123776436e-06 1.363158272579e-02 9.167939424515e-06 5.153679885864e+03
    3.887840000000e+05 3.725290298462e-08 2.931297375090e+00-1.601874828339e-07
    9.297678886103e-01 1.838437500000e+02 1.022676897112e+00-8.221056725725e-09
   -5.196645032553e-10 1.000000000000e+00 2.174000000000e+03 0.000000000000e+00
    2.400000000000e+00 0.000000000000e+00-1.071020960808e-08 1.000000000000e+00
    3.856200000000e+05 4.000000000000e+00
 3 21  9  9 11 59 44.0-2.833246253431e-04-1.318767317571e-11 0.000000000000e+00
    9.000000000000e+00 2.187500000000e+00 4.915561895741e-09 4.885545286343e-01
    1.359730958939e-07 3.870005602948e-03 3.546476364136e-06 5.153766948700e+03
    3.887840000000e+05-3.352761268616e-08 2.003828001422e+00 3.166496753693e-08
    9.702910076008e-01 3.145937500000e+02 9.751884374727e-01-8.509997332690e-09
   -6.393123442110e-11 1.000000000000e+00 2.174000000000e+03 0.000000000000e+00
    2.400000000000e+00 0.000000000000e+00 1.862645149231e-09 9.000000000000e+00
    3.857700000000e+05 4.000000000000e+00
17 21  9  9 11 59 44.0 5.021113902330e-04 5.570655048359e-12 0.000000000000e+00
    5.000000000000e+00-8.175000000000e+01 3.979808632147e-09-2.405745279576e+00
   -4.077330231667e-06 1.350588176865e-02 1.048669219017e-05 5.153662006378e+03
    3.887840000000e+05 1.788139343262e-07-2.980120805993e-02 5.774199962616e-08
    9.816181877205e-01 1.832812500000e+02-1.558313355080e+00-7.592459113540e-09
   -2.892977646988e-10 1.000000000000e+00 2.174000000000e+03 0.000000000000e+00
    2.400000000000e+00 0.000000000000e+00-1.117587089539e-08 5.000000000000e+00
    3.859500000000e+05 4.000000000000e+00
